start=new Date('2023-04-15T00:00:00.000Z').valueOf();
sats=[{"ELEMENT_SET_NO":"999","PERIAPSIS":"539.168","RCS_SIZE":"LARGE","MEAN_ELEMENT_THEORY":"SGP4","MEAN_MOTION_DDOT":"0.0000000000000","EPHEMERIS_TYPE":"0","NORAD_CAT_ID":"53890","EPOCH":"2023-04-14T18:01:40.185120","GP_ID":"230063604","TLE_LINE2":"2 53890  53.2191   7.1496 0000863  78.0903 282.0186 15.08833459 31747","CENTER_NAME":"EARTH","MEAN_MOTION":"15.08833459","OBJECT_TYPE":"PAYLOAD","REV_AT_EPOCH":"3174","FILE":"3887407","DECAY_DATE":null,"TLE_LINE1":"1 53890U 22119E   23104.75115955  .00000182  00000-0  29509-4 0  9998","RA_OF_ASC_NODE":"7.1496","ECCENTRICITY":"0.00008630","APOAPSIS":"540.362","PERIOD":"95.438","ARG_OF_PERICENTER":"78.0903","SEMIMAJOR_AXIS":"6917.900","OBJECT_NAME":"STARLINK-5050","CLASSIFICATION_TYPE":"U","MEAN_ANOMALY":"282.0186","COUNTRY_CODE":"US","SITE":"AFETR","INCLINATION":"53.2191","LAUNCH_DATE":"2022-09-24","BSTAR":"0.00002950900000","MEAN_MOTION_DOT":"0.00000182","TIME_SYSTEM":"UTC","OBJECT_ID":"2022-119E","REF_FRAME":"TEME"},{"COUNTRY_CODE":"US","MEAN_ANOMALY":"275.5274","CLASSIFICATION_TYPE":"U","INCLINATION":"53.2183","SITE":"AFETR","ECCENTRICITY":"0.00013280","RA_OF_ASC_NODE":"44.6798","TLE_LINE1":"1 53891U 22119F   23104.25300457  .00006885  00000-0  45008-3 0  9994","OBJECT_NAME":"STARLINK-5041","SEMIMAJOR_AXIS":"6917.831","ARG_OF_PERICENTER":"84.5869","APOAPSIS":"540.615","PERIOD":"95.437","TIME_SYSTEM":"UTC","REF_FRAME":"TEME","OBJECT_ID":"2022-119F","LAUNCH_DATE":"2022-09-24","MEAN_MOTION_DOT":"0.00006885","BSTAR":"0.00045008000000","MEAN_MOTION_DDOT":"0.0000000000000","NORAD_CAT_ID":"53891","EPOCH":"2023-04-14T06:04:19.594848","EPHEMERIS_TYPE":"0","PERIAPSIS":"538.777","ELEMENT_SET_NO":"999","MEAN_ELEMENT_THEORY":"SGP4","RCS_SIZE":"LARGE","REV_AT_EPOCH":"3159","MEAN_MOTION":"15.08856137","OBJECT_TYPE":"PAYLOAD","DECAY_DATE":null,"FILE":"3887333","GP_ID":"230061396","CENTER_NAME":"EARTH","TLE_LINE2":"2 53891  53.2183  44.6798 0001328  84.5869 275.5274 15.08856137 31596"},{"CLASSIFICATION_TYPE":"U","MEAN_ANOMALY":"267.6477","COUNTRY_CODE":"US","SITE":"AFETR","INCLINATION":"53.2167","TLE_LINE1":"1 53892U 22119G   23104.23457940  .00002813  00000-0  19472-3 0  9996","RA_OF_ASC_NODE":"44.5654","ECCENTRICITY":"0.00010610","PERIOD":"95.437","APOAPSIS":"540.445","ARG_OF_PERICENTER":"92.4636","SEMIMAJOR_AXIS":"6917.846","OBJECT_NAME":"STARLINK-5046","TIME_SYSTEM":"UTC","OBJECT_ID":"2022-119G","REF_FRAME":"TEME","LAUNCH_DATE":"2022-09-24","BSTAR":"0.00019472000000","MEAN_MOTION_DOT":"0.00002813","MEAN_MOTION_DDOT":"0.0000000000000","EPHEMERIS_TYPE":"0","EPOCH":"2023-04-14T05:37:47.660160","NORAD_CAT_ID":"53892","ELEMENT_SET_NO":"999","PERIAPSIS":"538.977","RCS_SIZE":"LARGE","MEAN_ELEMENT_THEORY":"SGP4","MEAN_MOTION":"15.08851303","OBJECT_TYPE":"PAYLOAD","REV_AT_EPOCH":"3159","FILE":"3887333","DECAY_DATE":null,"GP_ID":"230061647","TLE_LINE2":"2 53892  53.2167  44.5654 0001061  92.4636 267.6477 15.08851303 31590","CENTER_NAME":"EARTH"},{"LAUNCH_DATE":"2022-09-24","MEAN_MOTION_DOT":"-0.00000082","BSTAR":"0.00001294000000","TIME_SYSTEM":"UTC","OBJECT_ID":"2022-119H","REF_FRAME":"TEME","TLE_LINE1":"1 53893U 22119H   23104.10947038 -.00000082  00000-0  12940-4 0  9996","RA_OF_ASC_NODE":"45.2049","ECCENTRICITY":"0.00013470","PERIOD":"95.437","APOAPSIS":"540.651","ARG_OF_PERICENTER":"92.4819","OBJECT_NAME":"STARLINK-5052","SEMIMAJOR_AXIS":"6917.854","CLASSIFICATION_TYPE":"U","MEAN_ANOMALY":"267.6327","COUNTRY_CODE":"US","SITE":"AFETR","INCLINATION":"53.2194","GP_ID":"230060395","TLE_LINE2":"2 53893  53.2194  45.2049 0001347  92.4819 267.6327 15.08848593 31576","CENTER_NAME":"EARTH","OBJECT_TYPE":"PAYLOAD","MEAN_MOTION":"15.08848593","REV_AT_EPOCH":"3157","FILE":"3887333","DECAY_DATE":null,"ELEMENT_SET_NO":"999","PERIAPSIS":"538.787","RCS_SIZE":"LARGE","MEAN_ELEMENT_THEORY":"SGP4","MEAN_MOTION_DDOT":"0.0000000000000","EPHEMERIS_TYPE":"0","NORAD_CAT_ID":"53893","EPOCH":"2023-04-14T02:37:38.240832"},{"NORAD_CAT_ID":"53894","EPOCH":"2023-04-14T05:59:01.303296","EPHEMERIS_TYPE":"0","MEAN_MOTION_DDOT":"0.0000000000000","RCS_SIZE":"LARGE","MEAN_ELEMENT_THEORY":"SGP4","ELEMENT_SET_NO":"999","PERIAPSIS":"538.221","FILE":"3887333","DECAY_DATE":null,"REV_AT_EPOCH":"3159","OBJECT_TYPE":"PAYLOAD","MEAN_MOTION":"15.08860379","CENTER_NAME":"EARTH","TLE_LINE2":"2 53894  53.2186  44.6587 0002113  72.1341 287.9881 15.08860379 31593","GP_ID":"230060645","INCLINATION":"53.2186","SITE":"AFETR","COUNTRY_CODE":"US","CLASSIFICATION_TYPE":"U","MEAN_ANOMALY":"287.9881","ARG_OF_PERICENTER":"72.1341","OBJECT_NAME":"STARLINK-5043","SEMIMAJOR_AXIS":"6917.818","PERIOD":"95.436","APOAPSIS":"541.145","ECCENTRICITY":"0.00021130","TLE_LINE1":"1 53894U 22119J   23104.24932064  .00008103  00000-0  52631-3 0  9996","RA_OF_ASC_NODE":"44.6587","OBJECT_ID":"2022-119J","REF_FRAME":"TEME","TIME_SYSTEM":"UTC","BSTAR":"0.00052631000000","MEAN_MOTION_DOT":"0.00008103","LAUNCH_DATE":"2022-09-24"},{"RCS_SIZE":"LARGE","MEAN_ELEMENT_THEORY":"SGP4","ELEMENT_SET_NO":"999","PERIAPSIS":"538.885","EPOCH":"2023-04-14T05:43:05.546496","NORAD_CAT_ID":"53895","EPHEMERIS_TYPE":"0","MEAN_MOTION_DDOT":"0.0000000000000","CENTER_NAME":"EARTH","TLE_LINE2":"2 53895  53.2185  44.5871 0001204  91.6596 268.4534 15.08848973 31591","GP_ID":"230060896","FILE":"3887333","DECAY_DATE":null,"REV_AT_EPOCH":"3159","OBJECT_TYPE":"PAYLOAD","MEAN_MOTION":"15.08848973","ARG_OF_PERICENTER":"91.6596","SEMIMAJOR_AXIS":"6917.853","OBJECT_NAME":"STARLINK-5032","PERIOD":"95.437","APOAPSIS":"540.551","ECCENTRICITY":"0.00012040","TLE_LINE1":"1 53895U 22119K   23104.23825864  .00001719  00000-0  12604-3 0  9997","RA_OF_ASC_NODE":"44.5871","INCLINATION":"53.2185","SITE":"AFETR","COUNTRY_CODE":"US","MEAN_ANOMALY":"268.4534","CLASSIFICATION_TYPE":"U","BSTAR":"0.00012604000000","MEAN_MOTION_DOT":"0.00001719","LAUNCH_DATE":"2022-09-24","OBJECT_ID":"2022-119K","REF_FRAME":"TEME","TIME_SYSTEM":"UTC"},{"BSTAR":"0.00007386100000","MEAN_MOTION_DOT":"0.00000888","LAUNCH_DATE":"2022-09-24","OBJECT_ID":"2022-119L","REF_FRAME":"TEME","TIME_SYSTEM":"UTC","ARG_OF_PERICENTER":"96.3801","OBJECT_NAME":"STARLINK-5037","SEMIMAJOR_AXIS":"6917.858","PERIOD":"95.437","APOAPSIS":"540.471","ECCENTRICITY":"0.00010820","TLE_LINE1":"1 53896U 22119L   23104.23089530  .00000888  00000-0  73861-4 0  9999","RA_OF_ASC_NODE":"44.5433","INCLINATION":"53.2181","SITE":"AFETR","COUNTRY_CODE":"US","CLASSIFICATION_TYPE":"U","MEAN_ANOMALY":"263.7315","CENTER_NAME":"EARTH","TLE_LINE2":"2 53896  53.2181  44.5433 0001082  96.3801 263.7315 15.08847451 31592","GP_ID":"230061147","FILE":"3887333","DECAY_DATE":null,"REV_AT_EPOCH":"3159","OBJECT_TYPE":"PAYLOAD","MEAN_MOTION":"15.08847451","RCS_SIZE":"LARGE","MEAN_ELEMENT_THEORY":"SGP4","ELEMENT_SET_NO":"999","PERIAPSIS":"538.974","NORAD_CAT_ID":"53896","EPOCH":"2023-04-14T05:32:29.353920","EPHEMERIS_TYPE":"0","MEAN_MOTION_DDOT":"0.0000000000000"},{"TIME_SYSTEM":"UTC","OBJECT_ID":"2022-119M","REF_FRAME":"TEME","LAUNCH_DATE":"2022-09-24","MEAN_MOTION_DOT":"0.00003714","BSTAR":"0.00025123000000","MEAN_ANOMALY":"260.5654","CLASSIFICATION_TYPE":"U","COUNTRY_CODE":"US","SITE":"AFETR","INCLINATION":"53.2177","TLE_LINE1":"1 53897U 22119M   23104.24563524  .00003714  00000-0  25123-3 0  9999","RA_OF_ASC_NODE":"44.6315","ECCENTRICITY":"0.00014080","APOAPSIS":"540.684","PERIOD":"95.437","ARG_OF_PERICENTER":"99.5498","SEMIMAJOR_AXIS":"6917.845","OBJECT_NAME":"STARLINK-5035","MEAN_MOTION":"15.08851598","OBJECT_TYPE":"PAYLOAD","REV_AT_EPOCH":"3159","FILE":"3887333","DECAY_DATE":null,"GP_ID":"230059895","TLE_LINE2":"2 53897  53.2177  44.6315 0001408  99.5498 260.5654 15.08851598 31595","CENTER_NAME":"EARTH","MEAN_MOTION_DDOT":"0.0000000000000","EPHEMERIS_TYPE":"0","NORAD_CAT_ID":"53897","EPOCH":"2023-04-14T05:53:42.884736","ELEMENT_SET_NO":"999","PERIAPSIS":"538.736","RCS_SIZE":"LARGE","MEAN_ELEMENT_THEORY":"SGP4"},{"ARG_OF_PERICENTER":"90.4004","OBJECT_NAME":"STARLINK-5044","SEMIMAJOR_AXIS":"6917.848","PERIOD":"95.437","APOAPSIS":"540.546","ECCENTRICITY":"0.00012050","TLE_LINE1":"1 53898U 22119N   23104.21983613  .00001216  00000-0  94443-4 0  9999","RA_OF_ASC_NODE":"44.4752","INCLINATION":"53.2187","SITE":"AFETR","COUNTRY_CODE":"US","MEAN_ANOMALY":"269.7127","CLASSIFICATION_TYPE":"U","MEAN_MOTION_DOT":"0.00001216","BSTAR":"0.00009444300000","LAUNCH_DATE":"2022-09-24","OBJECT_ID":"2022-119N","REF_FRAME":"TEME","TIME_SYSTEM":"UTC","RCS_SIZE":"LARGE","MEAN_ELEMENT_THEORY":"SGP4","ELEMENT_SET_NO":"999","PERIAPSIS":"538.879","NORAD_CAT_ID":"53898","EPOCH":"2023-04-14T05:16:33.841632","EPHEMERIS_TYPE":"0","MEAN_MOTION_DDOT":"0.0000000000000","CENTER_NAME":"EARTH","TLE_LINE2":"2 53898  53.2187  44.4752 0001205  90.4004 269.7127 15.08850695 31591","GP_ID":"230060145","FILE":"3887333","DECAY_DATE":null,"REV_AT_EPOCH":"3159","MEAN_MOTION":"15.08850695","OBJECT_TYPE":"PAYLOAD"},{"MEAN_MOTION_DOT":"0.00003866","BSTAR":"0.00026078000000","LAUNCH_DATE":"2022-09-24","REF_FRAME":"TEME","OBJECT_ID":"2022-119P","TIME_SYSTEM":"UTC","OBJECT_NAME":"STARLINK-5042","SEMIMAJOR_AXIS":"6917.858","ARG_OF_PERICENTER":"88.1834","APOAPSIS":"540.512","PERIOD":"95.437","ECCENTRICITY":"0.00011410","RA_OF_ASC_NODE":"44.4965","TLE_LINE1":"1 53899U 22119P   23104.22353001  .00003866  00000-0  26078-3 0  9994","INCLINATION":"53.2176","SITE":"AFETR","COUNTRY_CODE":"US","CLASSIFICATION_TYPE":"U","MEAN_ANOMALY":"271.9288","CENTER_NAME":"EARTH","TLE_LINE2":"2 53899  53.2176  44.4965 0001141  88.1834 271.9288 15.08847432 31598","GP_ID":"230061397","DECAY_DATE":null,"FILE":"3887333","REV_AT_EPOCH":"3159","MEAN_MOTION":"15.08847432","OBJECT_TYPE":"PAYLOAD","MEAN_ELEMENT_THEORY":"SGP4","RCS_SIZE":"LARGE","PERIAPSIS":"538.933","ELEMENT_SET_NO":"999","NORAD_CAT_ID":"53899","EPOCH":"2023-04-14T05:21:52.992864","EPHEMERIS_TYPE":"0","MEAN_MOTION_DDOT":"0.0000000000000"}];
